SL-8 R/B                
1 15483U 85006B   26181.64485895  .00000159  00000+0  61435-4 0  9994
2 15483  74.0457  53.2995 0019175 298.4017  82.1715 14.37839936170260
SL-12 R/B(2)            
1 15772U 85042D   26181.46524426  .00000012  00000+0  26844-4 0  9992
2 15772  71.1063 209.4631 0036933 307.8829 153.9932 14.22008270130426
SL-14 R/B               
1 15945U 85069B   26181.69911322  .00000450  00000+0  47988-4 0  9991
2 15945  82.5274 278.6586 0018946 173.3453 186.8019 14.86525786189621
SL-16 R/B               
1 16182U 85097B   26181.98817954  .00000007  00000+0  27610-4 0  9992
2 16182  71.0033 262.0229 0005248  80.9063  91.6028 14.16614733103277
SL-14 R/B               
1 16496U 86006B   26181.91395955  .00000511  00000+0  51646-4 0  9992
2 16496  82.5270 153.1955 0074711 257.0303 102.2564 14.86958067166031
COSMOS 1743             
1 16719U 86034A   26181.80777802  .00056780  00000+0  50619-3 0  9991
2 16719  82.5282 314.2371 0004795 222.0056 138.0838 15.68213650197922
SL-14 R/B               
1 16792U 86046B   26181.48842186  .00000450  00000+0  48955-4 0  9991
2 16792  82.4825 333.6057 0022249 212.0221 147.9645 14.85680522143153
SL-14 R/B               
1 16882U 86055B   26181.54170087  .00000367  00000+0  39441-4 0  9999
2 16882  82.5197  20.5760 0017904 322.6328  67.1730 14.85731608136126
AJISAI (EGS)            
1 16908U 86061A   26181.96051244 -.00000107  00000+0 -71612-4 0  9994
2 16908  50.0094 105.0422 0011144 215.5894 268.8238 12.44516713482109
SL-14 R/B               
1 17567U 87024B   26181.88478826  .00000443  00000+0  47586-4 0  9990
2 17567  82.5283 346.3741 0016817 243.7306 116.2183 14.86222650104948
COSMOS 1833             
1 17589U 87027A   26181.98303033  .00000268  00000+0  16880-3 0  9992
2 17589  70.9207  87.8717 0023328  32.1144 328.1393 14.13060062 26323
SL-16 R/B               
1 17590U 87027B   26181.55652788  .00000153  00000+0  99817-4 0  9996
2 17590  71.0033  38.6558 0006901 297.9716  62.0709 14.17174470 31330
SL-14 R/B               
1 17912U 87038B   26181.46649262  .00000357  00000+0  38488-4 0  9992
2 17912  82.5003 190.5636 0020059 147.9096 212.3346 14.85452904 95975
COSMOS 1844             
1 17973U 87041A   26181.89633091  .00000321  00000+0  19152-3 0  9990
2 17973  70.8974 155.3895 0032170 215.4887 144.4095 14.14571148 19595
SL-14 R/B               
1 18153U 87055B   26181.62558957  .00000360  00000+0  38561-4 0  9993
2 18153  82.4985 242.5614 0020624   4.5584 355.5816 14.85719322 86706
COSMOS 1867             
1 18187U 87060A   26181.89582342 -.00000037  00000+0  23673-4 0  9990
2 18187  65.0117 349.6660 0016823 282.1388  77.7812 14.31517200 36143
SL-14 R/B               
1 18749U 88001B   26181.89796910  .00000406  00000+0  44066-4 0  9996
2 18749  82.5134  88.8752 0016933 220.2439 139.7525 14.85618788 58838
COSMOS 1933             
1 18958U 88020A   26181.93934885  .00004038  00000+0  19261-3 0  9992
2 18958  82.5134 138.8165 0004969 143.9111 216.2460 15.18804713 67413
SL-3 R/B                
1 19046U 88032B   26181.92811873  .00004040  00000+0  18429-3 0  9992
2 19046  97.5259 164.9559 0024993 194.8329 165.2176 15.20938127 69316
SL-16 R/B               
1 19120U 88039B   26181.43819609 -.00000052  00000+0 -20307-5 0  9994
2 19120  71.0127 190.1384 0021458 173.0067 187.1362 14.19630620974384
COSMOS 1953             
1 19210U 88050A   26181.09856309  .00007275  00000+0  24774-3 0  9999
2 19210  82.5070  45.0130 0012395  86.9914 273.2744 15.30150879 54969
SL-8 R/B                
1 19257U 88053B   26181.65294981  .00000198  00000+0  72434-4 0  9991
2 19257  74.0477 264.2359 0019278  54.5880 115.3432 14.38972566992845
COSMOS 1975             
1 19573U 88093A   26181.95940937  .00007899  00000+0  27446-3 0  9995
2 19573  82.5186   3.8455 0012346 126.8365 233.4010 15.29505664 36712
SL-14 R/B               
1 19574U 88093B   26181.76082215  .00000421  00000+0  45528-4 0  9997
2 19574  82.5321 295.9018 0021287  27.8939 132.3305 14.85751645 17800
SL-16 R/B               
1 19650U 88102B   26181.49641351  .00000153  00000+0  10132-3 0  9999
2 19650  71.0004 274.1347 0015111 206.8921 153.1420 14.16168757942861
INTERCOSMOS 24          
1 20261U 89080A   26181.51790337  .00000652  00000+0  18534-3 0  9995
2 20261  82.6051  30.9700 1187969  30.9996 335.5989 12.59680001681000
SL-14 R/B               
1 20262U 89080C   26181.76203845  .00000133  00000+0  40044-4 0  9992
2 20262  82.5942 100.5866 1228376 286.3282  60.6392 12.50575388674287
DELTA 1 R/B             
1 20323U 89089B   26181.46206068  .00000304  00000+0  83355-4 0  9998
2 20323  97.0632  10.8959 0070246 125.5373 235.2403 14.50739394912080
ARIANE 40 R/B           
1 20443U 90005H   26181.17796171  .00000250  00000+0  92809-4 0  9992
2 20443  98.2954 238.3899 0009309 220.5342 139.5154 14.39933990908996
DELTA 2 R/B(1)          
1 20453U 90008B   26181.35444669  .00085618  00000+0  57860-3 0  9996
2 20453  35.5995 147.4369 0064348 238.5868 120.8567 15.70903577943774
